COMMENT,ORIGINATOR,NORAD_CAT_ID,OBJECT_NAME,OBJECT_TYPE,CLASSIFICATION_TYPE,INTLDES,EPOCH,EPOCH_MICROSECONDS,MEAN_MOTION,ECCENTRICITY,INCLINATION,RA_OF_ASC_NODE,ARG_OF_PERICENTER,MEAN_ANOMALY,EPHEMERIS_TYPE,ELEMENT_SET_NO,REV_AT_EPOCH,BSTAR,MEAN_MOTION_DOT,MEAN_MOTION_DDOT,FILE,TLE_LINE0,TLE_LINE1,TLE_LINE2,OBJECT_ID,OBJECT_NUMBER,SEMIMAJOR_AXIS,PERIOD,APOGEE,PERIGEE,DECAYED
"GENERATED VIA SPACETRACK.ORG API","18 SPCS","48894","SPACEBEE-107","PAYLOAD","U","21059R","2022-03-29 20:09:07","715232","15.14236413","0.0009205","97.5436","219.1471","27.5803","332.5915","0","999","4188","0.00065204","0.00011872","0","3379400","0 SPACEBEE-107","1 48894U 21059R   22088.83967263  .00011872  00000-0  65204-3 0  9993","2 48894  97.5436 219.1471 0009205  27.5803 332.5915 15.14236413 41884","2021-059R","48894","6901.435","95.097","529.652","516.947","1"
"GENERATED VIA SPACETRACK.ORG API","18 SPCS","48894","SPACEBEE-107","PAYLOAD","U","21059R","2022-03-29 21:44:17","166336","15.14238186","0.0009204","97.5436","219.2125","27.3534","332.818","0","999","4189","0.00065871","0.00011995","0","3379484","0 SPACEBEE-107","1 48894U 21059R   22088.90575424  .00011995  00000-0  65871-3 0  9991","2 48894  97.5436 219.2125 0009204  27.3534 332.8180 15.14238186 41896","2021-059R","48894","6901.429","95.097","529.646","516.942","1"
"GENERATED VIA SPACETRACK.ORG API","18 SPCS","48894","SPACEBEE-107","PAYLOAD","U","21059R","2022-03-30 07:15:13","755456","15.14247891","0.0009195","97.544","219.6052","26.3303","333.8394","0","999","4195","0.00064965","0.00011832","0","3380779","0 SPACEBEE-107","1 48894U 21059R   22089.30224254  .00011832  00000-0  64965-3 0  9991","2 48894  97.5440 219.6052 0009195  26.3303 333.8394 15.14247891 41954","2021-059R","48894","6901.400","95.097","529.611","516.919","1"
"GENERATED VIA SPACETRACK.ORG API","18 SPCS","48894","SPACEBEE-107","PAYLOAD","U","21059R","2022-03-30 21:31:38","257248","15.14263394","0.0009177","97.5444","220.1947","24.4735","335.6931","0","999","4204","0.00072189","0.00013163","0","3380787","0 SPACEBEE-107","1 48894U 21059R   22089.89697057  .00013163  00000-0  72189-3 0  9996","2 48894  97.5444 220.1947 0009177  24.4735 335.6931 15.14263394 42040","2021-059R","48894","6901.353","95.096","529.551","516.884","1"
"GENERATED VIA SPACETRACK.ORG API","18 SPCS","48894","SPACEBEE-107","PAYLOAD","U","21059R","2022-03-31 03:52:15","583008","15.14274786","0.0009165","97.5446","220.4567","23.6834","336.4818","0","999","4208","0.0009193","0.00016794","0","3380952","0 SPACEBEE-107","1 48894U 21059R   22090.16129147  .00016794  00000-0  91930-3 0  9996","2 48894  97.5446 220.4567 0009165  23.6834 336.4818 15.14274786 42085","2021-059R","48894","6901.318","95.095","529.508","516.858","1"
"GENERATED VIA SPACETRACK.ORG API","18 SPCS","48894","SPACEBEE-107","PAYLOAD","U","21059R","2022-03-31 08:37:43","520736","15.14280934","0.0009184","97.5447","220.6532","23.1056","337.0587","0","999","4211","0.00092848","0.00016966","0","3381849","0 SPACEBEE-107","1 48894U 21059R   22090.35953149  .00016966  00000-0  92848-3 0  9994","2 48894  97.5447 220.6532 0009184  23.1056 337.0587 15.14280934 42118","2021-059R","48894","6901.299","95.095","529.503","516.826","1"
"GENERATED VIA SPACETRACK.ORG API","18 SPCS","48894","SPACEBEE-107","PAYLOAD","U","21059R","2022-03-31 21:18:57","691008","15.14296511","0.0009102","97.5449","221.1771","21.4044","338.7566","0","999","4219","0.00095148","0.00017396","0","3382347","0 SPACEBEE-107","1 48894U 21059R   22090.88816772  .00017396  00000-0  95148-3 0  9996","2 48894  97.5449 221.1771 0009102  21.4044 338.7566 15.14296511 42190","2021-059R","48894","6901.252","95.094","529.399","516.836","1"
"GENERATED VIA SPACETRACK.ORG API","18 SPCS","48894","SPACEBEE-107","PAYLOAD","U","21059R","2022-04-01 08:25:02","125056","15.14309435","0.0009073","97.5451","221.6357","19.8695","340.2888","0","999","4226","0.00083017","0.0001517","0","3383071","0 SPACEBEE-107","1 48894U 21059R   22091.35071904  .00015170  00000-0  83017-3 0  9999","2 48894  97.5451 221.6357 0009073  19.8695 340.2888 15.14309435 42261","2021-059R","48894","6901.213","95.093","529.339","516.816","1"
"GENERATED VIA SPACETRACK.ORG API","18 SPCS","48894","SPACEBEE-107","PAYLOAD","U","21059R","2022-04-01 08:25:02","125056","15.14309435","0.0009073","97.5451","221.6357","19.8695","340.2888","0","999","4226","0.00083017","0.0001517","0","3383353","0 SPACEBEE-107","1 48894U 21059R   22091.35071904  .00015170  00000-0  83017-3 0  9999","2 48894  97.5451 221.6357 0009073  19.8695 340.2888 15.14309435 42261","2021-059R","48894","6901.213","95.093","529.339","516.816","1"
"GENERATED VIA SPACETRACK.ORG API","18 SPCS","48894","SPACEBEE-107","PAYLOAD","U","21059R","2022-04-01 21:06:15","209280","15.14330764","0.0008993","97.5451","222.1599","18.2597","341.8956","0","999","4234","0.0009673","0.00017704","0","3383778","0 SPACEBEE-107","1 48894U 21059R   22091.87934270  .00017704  00000-0  96730-3 0  9991","2 48894  97.5451 222.1599 0008993  18.2597 341.8956 15.14330764 42340","2021-059R","48894","6901.148","95.092","529.219","516.807","1"
"GENERATED VIA SPACETRACK.ORG API","18 SPCS","48894","SPACEBEE-107","PAYLOAD","U","21059R","2022-04-02 20:53:30","780096","15.14362191","0.0008899","97.5452","223.1425","14.6466","345.5022","0","999","4249","0.00081863","0.0001498","0","3385473","0 SPACEBEE-107","1 48894U 21059R   22092.87049514  .00014980  00000-0  81863-3 0  9994","2 48894  97.5452 223.1425 0008899  14.6466 345.5022 15.14362191 42490","2021-059R","48894","6901.053","95.090","529.059","516.776","1"
"GENERATED VIA SPACETRACK.ORG API","18 SPCS","48894","SPACEBEE-107","PAYLOAD","U","21059R","2022-04-03 01:38:57","674112","15.14368802","0.0008881","97.5452","223.3391","13.9126","346.2349","0","999","4252","0.00083227","0.00015234","0","3385649","0 SPACEBEE-107","1 48894U 21059R   22093.06872308  .00015234  00000-0  83227-3 0  9990","2 48894  97.5452 223.3391 0008881  13.9126 346.2349 15.14368802 42529","2021-059R","48894","6901.032","95.089","529.026","516.769","1"
"GENERATED VIA SPACETRACK.ORG API","18 SPCS","48894","SPACEBEE-107","PAYLOAD","U","21059R","2022-04-03 20:40:44","662656","15.1439017","0.0008837","97.5452","224.1252","10.7547","349.3872","0","999","4264","0.00073002","0.00013359","0","3386965","0 SPACEBEE-107","1 48894U 21059R   22093.86162804  .00013359  00000-0  73002-3 0  9997","2 48894  97.5452 224.1252 0008837  10.7547 349.3872 15.14390170 42648","2021-059R","48894","6900.968","95.088","528.931","516.734","1"
"GENERATED VIA SPACETRACK.ORG API","18 SPCS","48894","SPACEBEE-107","PAYLOAD","U","21059R","2022-04-04 07:46:46","572960","15.14406189","0.0008814","97.5452","224.5839","8.8548","351.2837","0","999","4271","0.00084764","0.00015533","0","3387620","0 SPACEBEE-107","1 48894U 21059R   22094.32415015  .00015533  00000-0  84764-3 0  9997","2 48894  97.5452 224.5839 0008814   8.8548 351.2837 15.14406189 42716","2021-059R","48894","6900.919","95.087","528.866","516.701","1"
"GENERATED VIA SPACETRACK.ORG API","18 SPCS","48894","SPACEBEE-107","PAYLOAD","U","21059R","2022-04-04 07:46:46","572960","15.14406189","0.0008814","97.5452","224.5839","8.8548","351.2837","0","999","4271","0.00084764","0.00015533","0","3387897","0 SPACEBEE-107","1 48894U 21059R   22094.32415015  .00015533  00000-0  84764-3 0  9997","2 48894  97.5452 224.5839 0008814   8.8548 351.2837 15.14406189 42716","2021-059R","48894","6900.919","95.087","528.866","516.701","1"
"GENERATED VIA SPACETRACK.ORG API","18 SPCS","48894","SPACEBEE-107","PAYLOAD","U","21059R","2022-04-04 22:03:05","709312","15.14421255","0.0008826","97.5452","225.1735","6.2902","353.8439","0","999","4280","0.00077379","0.00014177","0","3388506","0 SPACEBEE-107","1 48894U 21059R   22094.91881608  .00014177  00000-0  77379-3 0  9994","2 48894  97.5452 225.1735 0008826   6.2902 353.8439 15.14421255 42804","2021-059R","48894","6900.873","95.086","528.829","516.647","1"
"GENERATED VIA SPACETRACK.ORG API","18 SPCS","48894","SPACEBEE-107","PAYLOAD","U","21059R","2022-04-05 13:54:32","938560","15.14439468","0.000882","97.5453","225.8286","3.7787","356.351","0","999","4290","0.00073998","0.00013561","0","3389439","0 SPACEBEE-107","1 48894U 21059R   22095.57954790  .00013561  00000-0  73998-3 0  9999","2 48894  97.5453 225.8286 0008820   3.7787 356.3510 15.14439468 42904","2021-059R","48894","6900.818","95.085","528.769","516.596","1"
"GENERATED VIA SPACETRACK.ORG API","18 SPCS","48894","SPACEBEE-107","PAYLOAD","U","21059R","2022-04-05 13:54:32","938560","15.14439468","0.000882","97.5453","225.8286","3.7787","356.351","0","999","4290","0.00073998","0.00013561","0","3389673","0 SPACEBEE-107","1 48894U 21059R   22095.57954790  .00013561  00000-0  73998-3 0  9999","2 48894  97.5453 225.8286 0008820   3.7787 356.3510 15.14439468 42904","2021-059R","48894","6900.818","95.085","528.769","516.596","1"
"GENERATED VIA SPACETRACK.ORG API","18 SPCS","48894","SPACEBEE-107","PAYLOAD","U","21059R","2022-04-05 20:15:07","643808","15.14447041","0.0008817","97.5454","226.0907","2.7085","357.4193","0","999","4294","0.00073249","0.00013426","0","3389912","0 SPACEBEE-107","1 48894U 21059R   22095.84383847  .00013426  00000-0  73249-3 0  9997","2 48894  97.5454 226.0907 0008817   2.7085 357.4193 15.14447041 42943","2021-059R","48894","6900.795","95.084","528.744","516.575","1"
"GENERATED VIA SPACETRACK.ORG API","18 SPCS","48894","SPACEBEE-107","PAYLOAD","U","21059R","2022-04-06 07:21:08","106912","15.14459586","0.0008763","97.5455","226.5493","1.1661","358.959","0","999","4301","0.0007187","0.00013176","0","3390907","0 SPACEBEE-107","1 48894U 21059R   22096.30634383  .00013176  00000-0  71870-3 0  9993","2 48894  97.5455 226.5493 0008763   1.1661 358.9590 15.14459586 43015","2021-059R","48894","6900.757","95.083","528.669","516.575","1"
